{
  "norad_id": 52447,
  "name": "JILIN-1 GAOFEN 3D30",
  "history": [
    {
      "epoch": "2026-04-30T13:24:27.344448Z",
      "apogee_km": 341.1106033425913,
      "perigee_km": 332.8194668598517,
      "latitude_deg": -2.163005704205508e-05,
      "longitude_deg": 173.9132013589386,
      "height_km": 343.9129862301762,
      "semi_major_axis_km": 6715.102035101221,
      "eccentricity": 0.00061735,
      "inclination_deg": 97.5637,
      "raan_deg": 233.5308,
      "arg_perigee_deg": 204.2326,
      "mean_anomaly_deg": 155.865,
      "mean_motion_rev_day": 15.77697865
    },
    {
      "epoch": "2026-05-02T09:32:33.472032Z",
      "apogee_km": 339.1667868799377,
      "perigee_km": 331.0491310755424,
      "latitude_deg": -2.4904374308149428e-05,
      "longitude_deg": -127.91359374530921,
      "height_km": 342.09055303914016,
      "semi_major_axis_km": 6713.24495897774,
      "eccentricity": 0.0006046,
      "inclination_deg": 97.5632,
      "raan_deg": 235.5421,
      "arg_perigee_deg": 199.9781,
      "mean_anomaly_deg": 160.1249,
      "mean_motion_rev_day": 15.78352565
    },
    {
      "epoch": "2026-05-03T20:32:02.162112Z",
      "apogee_km": 337.6017739076606,
      "perigee_km": 329.87640452896994,
      "latitude_deg": 5.637305297444928e-05,
      "longitude_deg": 67.37580786452924,
      "height_km": 340.5595945885766,
      "semi_major_axis_km": 6711.8760892183145,
      "eccentricity": 0.0005755,
      "inclination_deg": 97.5638,
      "raan_deg": 237.1381,
      "arg_perigee_deg": 199.0044,
      "mean_anomaly_deg": 161.1009,
      "mean_motion_rev_day": 15.78835441
    },
    {
      "epoch": "2026-05-04T17:49:39.899424Z",
      "apogee_km": 336.84751688138294,
      "perigee_km": 328.99289552724167,
      "latitude_deg": -1.3642511132147005e-05,
      "longitude_deg": 108.06636927449522,
      "height_km": 339.833303067703,
      "semi_major_axis_km": 6711.057206204312,
      "eccentricity": 0.0005852,
      "inclination_deg": 97.5643,
      "raan_deg": 238.1104,
      "arg_perigee_deg": 197.552,
      "mean_anomaly_deg": 162.5545,
      "mean_motion_rev_day": 15.79124424
    },
    {
      "epoch": "2026-05-05T19:40:42.783168Z",
      "apogee_km": 335.71487443664046,
      "perigee_km": 327.7475769054781,
      "latitude_deg": -6.761485655829556e-05,
      "longitude_deg": 80.42320204572414,
      "height_km": 338.74198493728744,
      "semi_major_axis_km": 6709.868225671059,
      "eccentricity": 0.0005937,
      "inclination_deg": 97.5638,
      "raan_deg": 239.2909,
      "arg_perigee_deg": 195.3374,
      "mean_anomaly_deg": 164.7713,
      "mean_motion_rev_day": 15.79544171
    },
    {
      "epoch": "2026-05-06T20:00:12.288384Z",
      "apogee_km": 334.7444921934939,
      "perigee_km": 327.09482579091036,
      "latitude_deg": 6.019451143699561e-05,
      "longitude_deg": 75.66305628941195,
      "height_km": 337.8121818598954,
      "semi_major_axis_km": 6709.056658992202,
      "eccentricity": 0.0005701,
      "inclination_deg": 97.563,
      "raan_deg": 240.4027,
      "arg_perigee_deg": 193.2173,
      "mean_anomaly_deg": 166.8946,
      "mean_motion_rev_day": 15.79830786
    },
    {
      "epoch": "2026-05-07T20:19:26.783328Z",
      "apogee_km": 333.928510830694,
      "perigee_km": 326.391068557793,
      "latitude_deg": -6.228394388658192e-06,
      "longitude_deg": 70.96555052438698,
      "height_km": 337.02604603368354,
      "semi_major_axis_km": 6708.296789694243,
      "eccentricity": 0.0005618,
      "inclination_deg": 97.563,
      "raan_deg": 241.5144,
      "arg_perigee_deg": 191.1826,
      "mean_anomaly_deg": 168.9317,
      "mean_motion_rev_day": 15.80099222
    },
    {
      "epoch": "2026-05-08T20:38:25.244160Z",
      "apogee_km": 332.99610806905457,
      "perigee_km": 325.5361343176628,
      "latitude_deg": -3.004063216222472e-05,
      "longitude_deg": 66.3352314591755,
      "height_km": 336.1106664905335,
      "semi_major_axis_km": 6707.403121193358,
      "eccentricity": 0.0005561,
      "inclination_deg": 97.5634,
      "raan_deg": 242.6263,
      "arg_perigee_deg": 189.8289,
      "mean_anomaly_deg": 170.287,
      "mean_motion_rev_day": 15.80415022
    }
  ]
}